{
  "type": "FeatureCollection",
  "features": [
    {
      "type": "Feature",
      "properties": {
        "id": "vYIMSTTpvK"
      },
      "geometry": {
        "coordinates": [
          [
            [
              -74.09581971470149,
              40.61521629195005
            ],
            [
              -74.0960830319284,
              40.615084939675285
            ],
            [
              -74.0961375762114,
              40.61486221131514
            ],
            [
              -74.09579150214118,
              40.61482937309697
            ],
            [
              -74.09550749570332,
              40.61494644841048
            ],
            [
              -74.09602284513369,
              40.61504924607763
            ],
            [
              -74.09581971470149,
              40.61521629195005
            ]
          ]
        ],
        "type": "Polygon"
      }
    },
    {
      "type": "Feature",
      "properties": {
        "id": "CtvSImxtw"
      },
      "geometry": {
        "coordinates": [
          [
            [
              -74.0958761398217,
              40.615114922282515
            ],
            [
              -74.09596924127568,
              40.61507827271171
            ],
            [
              -74.09581689345126,
              40.615055428809285
            ],
            [
              -74.09580184675255,
              40.61507970045514
            ],
            [
              -74.09578303837664,
              40.61514918810175
            ],
            [
              -74.09584134433116,
              40.615173459714526
            ],
            [
              -74.09588178233341,
              40.61516917648973
            ],
            [
              -74.09577739586119,
              40.61516275165138
            ],
            [
              -74.09574354078916,
              40.615086367418456
            ],
            [
              -74.0958761398217,
              40.615114922282515
            ]
          ]
        ],
        "type": "Polygon"
      }
    },
    {
      "type": "Feature",
      "properties": {
        "id": "QSqbO3HPD"
      },
      "geometry": {
        "coordinates": [
          [
            [
              -74.09671366042676,
              40.615351559438494
            ],
            [
              -74.09705315156674,
              40.615196649705325
            ],
            [
              -74.09669203079785,
              40.61494322517427
            ],
            [
              -74.09649454287738,
              40.615252331586305
            ],
            [
              -74.09671366042676,
              40.615351559438494
            ]
          ]
        ],
        "type": "Polygon"
      }
    }
  ]
}